TIANQI-39               
1 67478U 26010C   26036.23842823  .00000468  00000+0  31925-3 0  9990
2 67478  44.9844 310.5029 0016507  66.7904 293.4671 14.13053036  2895
TIANQI-40               
1 67479U 26010D   26036.23494425  .00000512  00000+0  33822-3 0  9990
2 67479  44.9838 310.4810 0012366  67.6807 292.5341 14.13801611  2891
SZ-20 MODULE            
1 67481U 25082C   26036.17546396  .00031393  00000+0  34695-3 0  9999
2 67481  41.4794  45.5482 0006243 103.0821 257.0716 15.62340359272530
2025-313BE              
1 67482U 25313BE  26033.63852928  .00077996  00000+0  31469-2 0  9990
2 67482  97.4080 110.5772 0009024 110.7004 249.5202 15.24449189  2629
ION SCV-021             
1 67483U 25276DT  26034.18636465  .00001099  00000+0  99302-4 0  9999
2 67483  97.5400 109.5002 0011491 211.3853 148.6685 14.97380347  2557
STARLINK-36551          
1 67493U 26012A   26036.25003472 -.01894411  00000+0 -13823-1 0  9997
2 67493  42.9987 140.3856 0001204 271.5214 272.7522 15.75607177  3855
STARLINK-36396          
1 67494U 26012B   26036.25003472 -.02372655  00000+0 -28869-1 0  9996
2 67494  42.9993 140.6711 0001279 282.3846 147.4790 15.63081997  3857
STARLINK-36550          
1 67495U 26012C   26036.25003472 -.01920421  00000+0 -16398-1 0  9990
2 67495  42.9992 140.4419 0001098 276.1228 245.6018 15.71521589  3853
STARLINK-36534          
1 67496U 26012D   26036.25003472 -.01881082  00000+0 -14261-1 0  9997
2 67496  42.9989 140.3602 0001128 265.5687 288.8373 15.74720584  3793
STARLINK-36555          
1 67497U 26012E   26036.25003472 -.01884825  00000+0 -14348-1 0  9992
2 67497  42.9988 140.3730 0001116 269.8330 279.4571 15.74634390  3856
STARLINK-36081          
1 67498U 26012F   26036.25003472 -.01966546  00000+0 -17197-1 0  9999
2 67498  42.9993 140.4177 0001272 269.0909 262.0997 15.71033574  3793
STARLINK-36558          
1 67499U 26012G   26036.25003472 -.01918205  00000+0 -16732-1 0  9993
2 67499  42.9992 140.4110 0001121 275.5630 258.3132 15.71017448  3854
