CCSDS_OMM_VERS = 2.0
CREATION_DATE  = 
ORIGINATOR     = 

OBJECT_NAME    = TIANQI-39
OBJECT_ID      = 2026-010C
CENTER_NAME    = EARTH
REF_FRAME      = TEME
TIME_SYSTEM    = UTC
MEAN_ELEMENT_THEORY = SGP/SGP4

EPOCH          = 2026-02-05T05:43:20.199072
MEAN_MOTION    = 14.13053036
ECCENTRICITY   = .00165079
INCLINATION    = 44.9844
RA_OF_ASC_NODE = 310.5029
ARG_OF_PERICENTER = 66.7904
MEAN_ANOMALY   = 293.4671

EPHEMERIS_TYPE = 0
CLASSIFICATION_TYPE = U
NORAD_CAT_ID   = 67478
ELEMENT_SET_NO = 999
REV_AT_EPOCH   = 289
BSTAR          = .31924973E-3
MEAN_MOTION_DOT = .468E-5
MEAN_MOTION_DDOT = 0

CCSDS_OMM_VERS = 2.0
CREATION_DATE  = 
ORIGINATOR     = 

OBJECT_NAME    = TIANQI-40
OBJECT_ID      = 2026-010D
CENTER_NAME    = EARTH
REF_FRAME      = TEME
TIME_SYSTEM    = UTC
MEAN_ELEMENT_THEORY = SGP/SGP4

EPOCH          = 2026-02-05T05:38:19.183200
MEAN_MOTION    = 14.13801611
ECCENTRICITY   = .00123667
INCLINATION    = 44.9838
RA_OF_ASC_NODE = 310.4810
ARG_OF_PERICENTER = 67.6807
MEAN_ANOMALY   = 292.5341

EPHEMERIS_TYPE = 0
CLASSIFICATION_TYPE = U
NORAD_CAT_ID   = 67479
ELEMENT_SET_NO = 999
REV_AT_EPOCH   = 289
BSTAR          = .33821679E-3
MEAN_MOTION_DOT = .512E-5
MEAN_MOTION_DDOT = 0

CCSDS_OMM_VERS = 2.0
CREATION_DATE  = 
ORIGINATOR     = 

OBJECT_NAME    = SZ-20 MODULE
OBJECT_ID      = 2025-082C
CENTER_NAME    = EARTH
REF_FRAME      = TEME
TIME_SYSTEM    = UTC
MEAN_ELEMENT_THEORY = SGP/SGP4

EPOCH          = 2026-02-05T04:12:40.086144
MEAN_MOTION    = 15.62340359
ECCENTRICITY   = .00062433
INCLINATION    = 41.4794
RA_OF_ASC_NODE = 45.5482
ARG_OF_PERICENTER = 103.0821
MEAN_ANOMALY   = 257.0716

EPHEMERIS_TYPE = 0
CLASSIFICATION_TYPE = U
NORAD_CAT_ID   = 67481
ELEMENT_SET_NO = 999
REV_AT_EPOCH   = 27253
BSTAR          = .34694952E-3
MEAN_MOTION_DOT = .31393E-3
MEAN_MOTION_DDOT = 0

CCSDS_OMM_VERS = 2.0
CREATION_DATE  = 
ORIGINATOR     = 

OBJECT_NAME    = 2025-313BE
OBJECT_ID      = 2025-313BE
CENTER_NAME    = EARTH
REF_FRAME      = TEME
TIME_SYSTEM    = UTC
MEAN_ELEMENT_THEORY = SGP/SGP4

EPOCH          = 2026-02-02T15:19:28.929792
MEAN_MOTION    = 15.24449189
ECCENTRICITY   = .00090249
INCLINATION    = 97.4080
RA_OF_ASC_NODE = 110.5772
ARG_OF_PERICENTER = 110.7004
MEAN_ANOMALY   = 249.5202

EPHEMERIS_TYPE = 0
CLASSIFICATION_TYPE = U
NORAD_CAT_ID   = 67482
ELEMENT_SET_NO = 999
REV_AT_EPOCH   = 262
BSTAR          = .31468641E-2
MEAN_MOTION_DOT = .77996E-3
MEAN_MOTION_DDOT = 0

CCSDS_OMM_VERS = 2.0
CREATION_DATE  = 
ORIGINATOR     = 

OBJECT_NAME    = ION SCV-021
OBJECT_ID      = 2025-276DT
CENTER_NAME    = EARTH
REF_FRAME      = TEME
TIME_SYSTEM    = UTC
MEAN_ELEMENT_THEORY = SGP/SGP4

EPOCH          = 2026-02-03T04:28:21.905760
MEAN_MOTION    = 14.97380347
ECCENTRICITY   = .0011491
INCLINATION    = 97.5400
RA_OF_ASC_NODE = 109.5002
ARG_OF_PERICENTER = 211.3853
MEAN_ANOMALY   = 148.6685

EPHEMERIS_TYPE = 0
CLASSIFICATION_TYPE = U
NORAD_CAT_ID   = 67483
ELEMENT_SET_NO = 999
REV_AT_EPOCH   = 255
BSTAR          = .99302135E-4
MEAN_MOTION_DOT = .1099E-4
MEAN_MOTION_DDOT = 0

CCSDS_OMM_VERS = 2.0
CREATION_DATE  = 
ORIGINATOR     = 

OBJECT_NAME    = STARLINK-36551
OBJECT_ID      = 2026-012A
CENTER_NAME    = EARTH
REF_FRAME      = TEME
TIME_SYSTEM    = UTC
MEAN_ELEMENT_THEORY = SGP/SGP4

EPOCH          = 2026-02-05T06:00:02.999808
MEAN_MOTION    = 15.75607177
ECCENTRICITY   = .00012041
INCLINATION    = 42.9987
RA_OF_ASC_NODE = 140.3856
ARG_OF_PERICENTER = 271.5214
MEAN_ANOMALY   = 272.7522

EPHEMERIS_TYPE = 0
CLASSIFICATION_TYPE = U
NORAD_CAT_ID   = 67493
ELEMENT_SET_NO = 999
REV_AT_EPOCH   = 385
BSTAR          = -.1382302E-1
MEAN_MOTION_DOT = -.1894411E-1
MEAN_MOTION_DDOT = 0

CCSDS_OMM_VERS = 2.0
CREATION_DATE  = 
ORIGINATOR     = 

OBJECT_NAME    = STARLINK-36396
OBJECT_ID      = 2026-012B
CENTER_NAME    = EARTH
REF_FRAME      = TEME
TIME_SYSTEM    = UTC
MEAN_ELEMENT_THEORY = SGP/SGP4

EPOCH          = 2026-02-05T06:00:02.999808
MEAN_MOTION    = 15.63081997
ECCENTRICITY   = .00012791
INCLINATION    = 42.9993
RA_OF_ASC_NODE = 140.6711
ARG_OF_PERICENTER = 282.3846
MEAN_ANOMALY   = 147.4790

EPHEMERIS_TYPE = 0
CLASSIFICATION_TYPE = U
NORAD_CAT_ID   = 67494
ELEMENT_SET_NO = 999
REV_AT_EPOCH   = 385
BSTAR          = -.28869236E-1
MEAN_MOTION_DOT = -.2372655E-1
MEAN_MOTION_DDOT = 0

CCSDS_OMM_VERS = 2.0
CREATION_DATE  = 
ORIGINATOR     = 

OBJECT_NAME    = STARLINK-36550
OBJECT_ID      = 2026-012C
CENTER_NAME    = EARTH
REF_FRAME      = TEME
TIME_SYSTEM    = UTC
MEAN_ELEMENT_THEORY = SGP/SGP4

EPOCH          = 2026-02-05T06:00:02.999808
MEAN_MOTION    = 15.71521589
ECCENTRICITY   = .00010988
INCLINATION    = 42.9992
RA_OF_ASC_NODE = 140.4419
ARG_OF_PERICENTER = 276.1228
MEAN_ANOMALY   = 245.6018

EPHEMERIS_TYPE = 0
CLASSIFICATION_TYPE = U
NORAD_CAT_ID   = 67495
ELEMENT_SET_NO = 999
REV_AT_EPOCH   = 385
BSTAR          = -.16398229E-1
MEAN_MOTION_DOT = -.1920421E-1
MEAN_MOTION_DDOT = 0

CCSDS_OMM_VERS = 2.0
CREATION_DATE  = 
ORIGINATOR     = 

OBJECT_NAME    = STARLINK-36534
OBJECT_ID      = 2026-012D
CENTER_NAME    = EARTH
REF_FRAME      = TEME
TIME_SYSTEM    = UTC
MEAN_ELEMENT_THEORY = SGP/SGP4

EPOCH          = 2026-02-05T06:00:02.999808
MEAN_MOTION    = 15.74720584
ECCENTRICITY   = .0001128
INCLINATION    = 42.9989
RA_OF_ASC_NODE = 140.3602
ARG_OF_PERICENTER = 265.5687
MEAN_ANOMALY   = 288.8373

EPHEMERIS_TYPE = 0
CLASSIFICATION_TYPE = U
NORAD_CAT_ID   = 67496
ELEMENT_SET_NO = 999
REV_AT_EPOCH   = 379
BSTAR          = -.14260572E-1
MEAN_MOTION_DOT = -.1881082E-1
MEAN_MOTION_DDOT = 0

CCSDS_OMM_VERS = 2.0
CREATION_DATE  = 
ORIGINATOR     = 

OBJECT_NAME    = STARLINK-36555
OBJECT_ID      = 2026-012E
CENTER_NAME    = EARTH
REF_FRAME      = TEME
TIME_SYSTEM    = UTC
MEAN_ELEMENT_THEORY = SGP/SGP4

EPOCH          = 2026-02-05T06:00:02.999808
MEAN_MOTION    = 15.74634390
ECCENTRICITY   = .00011169
INCLINATION    = 42.9988
RA_OF_ASC_NODE = 140.3730
ARG_OF_PERICENTER = 269.8330
MEAN_ANOMALY   = 279.4571

EPHEMERIS_TYPE = 0
CLASSIFICATION_TYPE = U
NORAD_CAT_ID   = 67497
ELEMENT_SET_NO = 999
REV_AT_EPOCH   = 385
BSTAR          = -.14347837E-1
MEAN_MOTION_DOT = -.1884825E-1
MEAN_MOTION_DDOT = 0

CCSDS_OMM_VERS = 2.0
CREATION_DATE  = 
ORIGINATOR     = 

OBJECT_NAME    = STARLINK-36081
OBJECT_ID      = 2026-012F
CENTER_NAME    = EARTH
REF_FRAME      = TEME
TIME_SYSTEM    = UTC
MEAN_ELEMENT_THEORY = SGP/SGP4

EPOCH          = 2026-02-05T06:00:02.999808
MEAN_MOTION    = 15.71033574
ECCENTRICITY   = .00012729
INCLINATION    = 42.9993
RA_OF_ASC_NODE = 140.4177
ARG_OF_PERICENTER = 269.0909
MEAN_ANOMALY   = 262.0997

EPHEMERIS_TYPE = 0
CLASSIFICATION_TYPE = U
NORAD_CAT_ID   = 67498
ELEMENT_SET_NO = 999
REV_AT_EPOCH   = 379
BSTAR          = -.17196954E-1
MEAN_MOTION_DOT = -.1966546E-1
MEAN_MOTION_DDOT = 0

CCSDS_OMM_VERS = 2.0
CREATION_DATE  = 
ORIGINATOR     = 

OBJECT_NAME    = STARLINK-36558
OBJECT_ID      = 2026-012G
CENTER_NAME    = EARTH
REF_FRAME      = TEME
TIME_SYSTEM    = UTC
MEAN_ELEMENT_THEORY = SGP/SGP4

EPOCH          = 2026-02-05T06:00:02.999808
MEAN_MOTION    = 15.71017448
ECCENTRICITY   = .00011219
INCLINATION    = 42.9992
RA_OF_ASC_NODE = 140.4110
ARG_OF_PERICENTER = 275.5630
MEAN_ANOMALY   = 258.3132

EPHEMERIS_TYPE = 0
CLASSIFICATION_TYPE = U
NORAD_CAT_ID   = 67499
ELEMENT_SET_NO = 999
REV_AT_EPOCH   = 385
BSTAR          = -.16732492E-1
MEAN_MOTION_DOT = -.1918205E-1
MEAN_MOTION_DDOT = 0

